ONEWEB-0504             
1 54122U 22138K   25018.78713287  .00000101  00000+0  22007-3 0  9994
2 54122  87.9143  47.2275 0001434  95.3789 264.7507 13.19727280108985
ONEWEB-0505             
1 54123U 22138L   25018.63233471  .00000076  00000+0  15762-3 0  9992
2 54123  87.9143  47.2500 0001316 110.5860 249.5414 13.19727565108946
ONEWEB-0506             
1 54124U 22138M   25018.83451005  .00000000  00000+0 -31621-4 0  9991
2 54124  87.9143  47.2070 0001633 100.4835 259.6482 13.19727924108969
ONEWEB-0507             
1 54125U 22138N   25018.77922757  .00000103  00000+0  22596-3 0  9995
2 54125  87.9151  47.2575 0001714 101.8816 258.2509 13.19727590109003
ONEWEB-0508             
1 54126U 22138P   25018.77606923 -.00000143  00000+0 -39073-3 0  9994
2 54126  87.9147  47.2455 0001694 108.6410 251.4907 13.19725650108986
ONEWEB-0509             
1 54127U 22138Q   25019.12989572  .00000010  00000+0 -67763-5 0  9990
2 54127  87.9142  47.1473 0001697  97.2704 262.8622 13.19727423109872
ONEWEB-0510             
1 54128U 22138R   25018.74287595 -.00000017  00000+0 -73353-4 0  9993
2 54128  87.9253  16.7855 0002098  89.2125 270.9248 13.20773670111375
ONEWEB-0511             
1 54129U 22138S   25018.82345359  .00000044  00000+0  78772-4 0  9994
2 54129  87.9142  47.2130 0001512  85.4516 274.6789 13.19727803108990
